GOES 13                 
1 29155U 06018A   24133.99632635 -.00000050  00000+0  00000+0 0  9997
2 29155   2.5359  85.6616 0083570 254.2154 271.1583  0.99110858 65814
GPS BIIR-16M            
1 29601U 06052A   24133.60178302 -.00000022  00000+0  00000+0 0  9994
2 29601  55.1503 244.3869 0086045  82.6166 278.3721  2.00565628128057
GPS BIIR-17M            
1 32260U 07047A   24133.90341664  .00000021  00000+0  00000+0 0  9998
2 32260  53.5898 111.7106 0153671  74.6612 287.0076  2.00566108121461
GPS BIIR-18M            
1 32384U 07062A   24133.96699969 -.00000053  00000+0  00000+0 0  9998
2 32384  55.6698 304.7611 0027697 148.8111  24.5396  2.00572799120225
SARSAT 12 (NOAA 19)     
1 33591U 09005A   24134.17941964  .00000662  00000+0  37894-3 0  9997
2 33591  99.0494 189.6046 0014291  35.2409 324.9704 14.12998116786688
GOES 14                 
1 35491U 09033A   24133.59216051 -.00000069  00000+0  00000+0 0  9993
2 35491   0.2563 107.9672 0003258 325.7879 261.5982  1.00272909 54430
GOES 15                 
1 36411U 10008A   24133.93729917  .00000031  00000+0  00000+0 0  9996
2 36411   0.2080  90.3110 0001369 175.9107   3.9865  1.00276981 51966
GSAT0101 (GALILEO-PFM)  
1 37846U 11060A   24129.24897345 -.00000098  00000+0  00000+0 0  9992
2 37846  57.1273   2.6130 0004022  31.1644 328.9077  1.70475818 77993
GSAT0102 (GALILEO-FM2)  
1 37847U 11060B   24131.23496045 -.00000103  00000+0  00000+0 0  9994
2 37847  57.1280   2.5593 0004237   4.0101 180.6641  1.70475331 78035
LUCH 5A                 
1 37951U 11074B   24133.62965993 -.00000052  00000+0  00000+0 0  9996
2 37951   6.7957  85.5272 0003668 340.1049 198.9607  1.00268690 45375
METEOSAT-10 (MSG-3)     
1 38552U 12035B   24130.72226255 -.00000009  00000+0  00000+0 0  9993
2 38552   2.8810  60.6740 0002029 288.6403 138.7177  1.00271223 43156
SARSAT 13 (METOP-B)     
1 38771U 12049A   24134.19132678  .00000637  00000+0  31061-3 0  9992
2 38771  98.6294 192.1946 0001844 108.9822 251.1556 14.21528697604577
GPS BIIF-3              
1 38833U 12053A   24133.00201482  .00000019  00000+0  00000+0 0  9994
2 38833  53.5136 174.9476 0150478  55.4537 306.0271  2.00558082 84070
GSAT0103 (GALILEO-FM3)  
1 38857U 12055A   24132.22098099  .00000035  00000+0  00000+0 0  9991
2 38857  55.3891 122.6199 0006042 277.6291  82.2798  1.70473629 71935
GPS BIIF-4              
1 39166U 13023A   24133.36397224 -.00000051  00000+0  00000+0 0  9998
2 39166  55.1450 300.0230 0124045  44.5248 316.4454  2.00563046 80526
INSAT-3D                
1 39216U 13038B   24133.84494014 -.00000161  00000+0  00000+0 0  9990
2 39216   0.0550  92.5454 0001182 207.0750 317.7516  1.00271079 39408
GPS BIIF-5              
1 39533U 14008A   24133.36607112  .00000014  00000+0  00000+0 0  9998
2 39533  53.5969 180.5254 0072538 219.7138 139.8226  2.00566365 74323
LUCH 5V                 
1 39727U 14023A   24133.86230081 -.00000272  00000+0  00000+0 0  9999
2 39727   3.2123  76.2461 0001684   1.1696 198.8791  1.00269675 36681
GPS BIIF-6              
1 39741U 14026A   24133.64285501 -.00000108  00000+0  00000+0 0  9999
2 39741  56.7102   1.2443 0031738 317.0361  42.7580  2.00570985 73185
GPS BIIF-7              
1 40105U 14045A   24133.23717429  .00000025  00000+0  00000+0 0  9997
2 40105  54.9160 119.0439 0024737 116.1194 244.1185  2.00563815 70710
GSAT0201 (GALILEO 5)    
1 40128U 14050A   24132.43593083 -.00000080  00000+0  00000+0 0  9999
2 40128  49.6981 304.5387 1610199 149.7907 220.5683  1.85519450 64091
GSAT0202 (GALILEO 6)    
1 40129U 14050B   24133.77234258 -.00000076  00000+0  00000+0 0  9999
2 40129  49.7139 303.5613 1608921 150.6466 219.4487  1.85520157 66255
GPS BIIF-8              
1 40294U 14068A   24133.10810700 -.00000063  00000+0  00000+0 0  9996
2 40294  56.3923  60.6479 0052502  60.6914 299.8226  2.00557430 69842
GLONASS-K 2             
1 40315U 14075A   24133.00030494  .00000004  00000+0  00000+0 0  9995
2 40315  63.6219 216.9343 0020136 208.6556 151.2889  2.13101505 73523
GPS BIIF-9              
1 40534U 15013A   24133.73990828 -.00000023  00000+0  00000+0 0  9999
2 40534  53.3562 235.8671 0087430  29.8001 330.7206  2.00567647 66477
GSAT0203 (GALILEO 7)    
1 40544U 15017A   24133.13432265 -.00000105  00000+0  00000+0 0  9995
2 40544  56.9224   2.4467 0002096 295.5432  64.4774  1.70475829 56148
GSAT0204 (GALILEO 8)    
1 40545U 15017B   24132.21529529 -.00000105  00000+0  00000+0 0  9994
2 40545  56.9286   2.4869 0001342 271.6763  88.3519  1.70475555 19178
GPS BIIF-10             
1 40730U 15033A   24133.40315586 -.00000051  00000+0  00000+0 0  9996
2 40730  54.6290 298.5125 0093979  19.3801 340.9529  2.00568798 64639
METEOSAT-11 (MSG-4)     
1 40732U 15034A   24134.09146873  .00000058  00000+0  00000+0 0  9992
2 40732   1.3030  68.1702 0001456 167.2812  38.1078  1.00268038 32349
GSAT0205 (GALILEO 9)    
1 40889U 15045A   24127.87738284 -.00000024  00000+0  00000+0 0  9992
2 40889  55.2377 242.9110 0004155  40.6618 319.3489  1.70473923 53864
GSAT0206 (GALILEO 10)   
1 40890U 15045B   24130.44438836 -.00000018  00000+0  00000+0 0  9994
2 40890  55.2362 242.8356 0001954  40.0656 319.9456  1.70473950 53939
GPS BIIF-11             
1 41019U 15062A   24132.96216883 -.00000063  00000+0  00000+0 0  9992
2 41019  56.3730  60.5064 0094787 225.3502 133.8662  2.00562433 62468
ELEKTRO-L 2             
1 41105U 15074A   24134.15119105 -.00000119  00000+0  00000+0 0  9995
2 41105   4.7547  79.8682 0000646 204.8524 346.5832  1.00273254 30841
GSAT0209 (GALILEO 12)   
1 41174U 15079A   24127.09471814  .00000066  00000+0  00000+0 0  9999
2 41174  55.4074 122.4699 0005557 308.9646  50.9948  1.70474315 51615
GSAT0208 (GALILEO 11)   
1 41175U 15079B   24131.42049036  .00000034  00000+0  00000+0 0  9994
2 41175  55.4069 122.3489 0004858 308.5330  51.4020  1.70474249 52103
GPS BIIF-12             
1 41328U 16007A   24133.54162762  .00000029  00000+0  00000+0 0  9997
2 41328  55.1126 119.8661 0079614 238.6334 120.5704  2.00563751 60484
GSAT0211 (GALILEO 14)   
1 41549U 16030A   24132.71644930 -.00000022  00000+0  00000+0 0  9992
2 41549  55.3824 242.7803 0002145 328.9548  31.0410  1.70473977 49602
GSAT0210 (GALILEO 13)   
1 41550U 16030B   24132.42112594 -.00000020  00000+0  00000+0 0  9996
2 41550  55.3818 242.7894 0002228 265.8394  94.1427  1.70473924 49595
INSAT-3DR               
1 41752U 16054A   24133.90952410 -.00000082  00000+0  00000+0 0  9997
2 41752   0.1069  92.2654 0010739 181.6434 358.6619  1.00272510 28143
GSAT0207 (GALILEO 15)   
1 41859U 16069A   24133.84074410  .00000040  00000+0  00000+0 0  9992
2 41859  55.0742 122.2948 0005898 298.6544  61.2651  1.70474312 46356
GSAT0212 (GALILEO 16)   
1 41860U 16069B   24132.52190996  .00000035  00000+0  00000+0 0  9990
2 41860  55.0716 122.3277 0004305 316.3546  43.5884  1.70474482 46581
GSAT0213 (GALILEO 17)   
1 41861U 16069C   24132.30344492  .00000034  00000+0  00000+0 0  9998
2 41861  55.0727 122.3403 0005944 283.5622  76.3487  1.70473135 46447
GSAT0214 (GALILEO 18)   
1 41862U 16069D   24131.86250281  .00000033  00000+0  00000+0 0  9990
2 41862  55.0721 122.3463 0004938 287.1387  72.7849  1.70474599 46568
GOES 16                 
1 41866U 16071A   24133.78313181 -.00000252  00000+0  00000+0 0  9993
2 41866   0.0422 271.7731 0000384 112.1593  53.8224  1.00271648 27428
GSAT-17                 
1 42815U 17040B   24134.07410480 -.00000262  00000+0  00000+0 0  9999
2 42815   0.0530 101.5921 0003147 212.3931  37.5189  1.00270421 25204
GSAT0215 (GALILEO 19)   
1 43055U 17079A   24129.41926954 -.00000019  00000+0  00000+0 0  9998
2 43055  55.3612 242.6931 0001197 252.3505 107.6263  1.70474683 39869
GSAT0216 (GALILEO 20)   
1 43056U 17079B   24133.23051351 -.00000024  00000+0  00000+0 0  9990
2 43056  55.3591 242.5883 0002938 270.7040  89.2724  1.70474884 39942
GSAT0217 (GALILEO 21)   
1 43057U 17079C   24133.45096863 -.00000024  00000+0  00000+0 0  9992
2 43057  55.3569 242.5810 0002128 295.9261  64.0624  1.70474822 39934
GSAT0218 (GALILEO 22)   
1 43058U 17079D   24130.73808614 -.00000017  00000+0  00000+0 0  9998
2 43058  55.3585 242.6531 0003148 269.1493  90.8138  1.70474718 39916
GOES 17                 
1 43226U 18022A   24133.36021611 -.00000095  00000+0  00000+0 0  9996
2 43226   0.0411 100.8911 0000510 281.4709 233.2277  1.00272012 22748
GSAT0221 (GALILEO 25)   
1 43564U 18060A   24129.46551437 -.00000099  00000+0  00000+0 0  9997
2 43564  57.3029   2.5370 0003210 315.8285  44.1941  1.70475497 36045
GSAT0222 (GALILEO 26)   
1 43565U 18060B   24130.27055467 -.00000101  00000+0  00000+0 0  9995
2 43565  57.3066   2.5169 0001639 274.9714  85.0572  1.70475228 36101
GSAT0219 (GALILEO 23)   
1 43566U 18060C   24132.25225856 -.00000104  00000+0  00000+0 0  9990
2 43566  57.3055   2.4654 0002850 334.1552  25.8746  1.70475617 36111
GSAT0220 (GALILEO 24)   
1 43567U 18060D   24130.12643232 -.00000100  00000+0  00000+0 0  9993
2 43567  57.3068   2.5226 0004477 305.7602  54.2457  1.70475399 36065
BEIDOU-3 M13            
1 43622U 18072A   24131.69149043 -.00000025  00000+0  00000+0 0  9998
2 43622  55.9656  88.1297 0008598 303.9768  55.8970  1.86231446 38365
BEIDOU-3 M14            
1 43623U 18072B   24132.09389826 -.00000023  00000+0  00000+0 0  9997
2 43623  55.9677  88.1094 0006562 325.4635  34.4507  1.86231500 38365
GPS BIII-1              
1 43873U 18109A   24133.43019294  .00000030  00000+0  00000+0 0  9990
2 43873  55.2839 122.4396 0028670 195.9037 336.1580  2.00554400 39719
METEOR-M2 2             
1 44387U 19038A   24134.22641014  .00000272  00000+0  13862-3 0  9994
2 44387  98.8247 103.3178 0002384  74.4871 285.6570 14.23882474252417
GPS BIII-2              
1 44506U 19056A   24133.06978066 -.00000109  00000+0  00000+0 0  9994
2 44506  55.8403   1.5122 0040867 188.4432 343.1000  2.00571445 34705
